{
    "links": {
        "self": "http://www.neowsapp.com/rest/v1/neo/3399119?api_key=iIulBulltgU6a56xZRHN4H3l9WmuAYTsLGpBGhQ2"
    },
    "id": "3399119",
    "neo_reference_id": "3399119",
    "name": "(2008 AE4)",
    "designation": "2008 AE4",
    "nasa_jpl_url": "http://ssd.jpl.nasa.gov/sbdb.cgi?sstr=3399119",
    "absolute_magnitude_h": 23.9,
    "estimated_diameter": {
        "kilometers": {
            "estimated_diameter_min": 0.04411182,
            "estimated_diameter_max": 0.0986370281
        },
        "meters": {
            "estimated_diameter_min": 44.1118199997,
            "estimated_diameter_max": 98.6370281305
        },
        "miles": {
            "estimated_diameter_min": 0.0274098057,
            "estimated_diameter_max": 0.0612901888
        },
        "feet": {
            "estimated_diameter_min": 144.7238235278,
            "estimated_diameter_max": 323.6123073718
        }
    },
    "is_potentially_hazardous_asteroid": false,
    "close_approach_data": [
        {
            "close_approach_date": "1943-12-14",
            "close_approach_date_full": "1943-Dec-14 18:52",
            "epoch_date_close_approach": -822028080000,
            "relative_velocity": {
                "kilometers_per_second": "18.2924480018",
                "kilometers_per_hour": "65852.8128065488",
                "miles_per_hour": "40918.3769352691"
            },
            "miss_distance": {
                "astronomical": "0.3895241173",
                "lunar": "151.5248816297",
                "kilometers": "58271978.261710151",
                "miles": "36208528.2800600438"
            },
            "orbiting_body": "Earth"
        },
        {
            "close_approach_date": "2008-01-21",
            "close_approach_date_full": "2008-Jan-21 12:37",
            "epoch_date_close_approach": 1200919020000,
            "relative_velocity": {
                "kilometers_per_second": "7.4990338316",
                "kilometers_per_hour": "26996.5217936684",
                "miles_per_hour": "16774.5887778491"
            },
            "miss_distance": {
                "astronomical": "0.0505950382",
                "lunar": "19.6814698598",
                "kilometers": "7568909.947288634",
                "miles": "4703102.5554817892"
            },
            "orbiting_body": "Earth"
        },
        {
            "close_approach_date": "2010-01-11",
            "close_approach_date_full": "2010-Jan-11 03:56",
            "epoch_date_close_approach": 1263182160000,
            "relative_velocity": {
                "kilometers_per_second": "4.1742846215",
                "kilometers_per_hour": "15027.4246375436",
                "miles_per_hour": "9337.4572699226"
            },
            "miss_distance": {
                "astronomical": "1.9833961592",
                "lunar": "771.5411059288",
                "kilometers": "296711840.782500904",
                "miles": "184368188.5957403152"
            },
            "orbiting_body": "Juptr"
        }
    ],
    "orbital_data": {
        "orbit_id": "16",
        "orbit_determination_date": "2017-04-06 09:04:47",
        "first_observation_date": "2008-01-10",
        "last_observation_date": "2008-03-11",
        "data_arc_in_days": 61,
        "observations_used": 33,
        "orbit_uncertainty": "7",
        "minimum_orbit_intersection": ".0585549",
        "jupiter_tisserand_invariant": "3.334",
        "epoch_osculation": "2459000.5",
        "eccentricity": ".5596442068434034",
        "semi_major_axis": "2.334275943404118",
        "inclination": "5.508715271077763",
        "ascending_node_longitude": "101.5135069083601",
        "orbital_period": "1302.646924094574",
        "perihelion_distance": "1.027911934504083",
        "perihelion_argument": "28.89510934396399",
        "aphelion_distance": "3.640639952304153",
        "perihelion_time": "2458403.726974648413",
        "mean_anomaly": "164.9244205415815",
        "mean_motion": ".2763603808071199",
        "equinox": "J2000",
        "orbit_class": {
            "orbit_class_type": "AMO",
            "orbit_class_description": "Near-Earth asteroid orbits similar to that of 1221 Amor",
            "orbit_class_range": "1.017 AU < q (perihelion) < 1.3 AU"
        }
    },
    "is_sentry_object": false
}